MALLIGYONG-1            
1 58400U 23179A   24176.22069862  .00005439  00000+0  24729-3 0  9991
2 58400  97.4029  62.9510 0002996 131.6095 228.5398 15.21148197 32791
